{"fetched_at":"2026-07-18T17:30:12.989Z","source":"https://celestrak.org/NORAD/elements/gp.php?NAME=RADARSAT&FORMAT=JSON","constellation":"radarsat-2","records":[{"OBJECT_NAME":"RADARSAT-2","OBJECT_ID":"2007-061A","EPOCH":"2026-07-18T07:33:17.710848","CLASSIFICATION_TYPE":"U","MEAN_MOTION":14.2998391,"ECCENTRICITY":0.00013206,"INCLINATION":98.5781,"RA_OF_ASC_NODE":205.8034,"ARG_OF_PERICENTER":84.8029,"MEAN_ANOMALY":275.3304,"EPHEMERIS_TYPE":0,"NORAD_CAT_ID":32382,"ELEMENT_SET_NO":999,"REV_AT_EPOCH":97040,"BSTAR":0.000043131972,"MEAN_MOTION_DOT":6.8e-7,"MEAN_MOTION_DDOT":0}]}
